{"type": "FeatureCollection", "features": [{"type": "Feature", "properties": {"norad_id": 2807, "name": "OPS 7218 (TRANSIT 16)", "group": "nnss", "lat": -61.804877649769494, "lon": 174.2239422725393, "alt_km": 1092.3613980416849, "timestamp": "2025-12-24T20:42:21.295280+00:00", "meta": {"OBJECT_NAME": "OPS 7218 (TRANSIT 16)", "OBJECT_ID": "1967-048A", "EPOCH": "2025-12-24T07:07:33.651264", "MEAN_MOTION": 13.50724626, "ECCENTRICITY": 0.0022155, "INCLINATION": 89.6733, "RA_OF_ASC_NODE": 353.6328, "ARG_OF_PERICENTER": 83.3218, "MEAN_ANOMALY": 288.5702, "EPHEMERIS_TYPE": 0, "CLASSIFICATION_TYPE": "U", "NORAD_CAT_ID": 2807, "ELEMENT_SET_NO": 999, "REV_AT_EPOCH": 88432, "BSTAR": 0.00013800616, "MEAN_MOTION_DOT": 9.9e-07, "MEAN_MOTION_DDOT": 0}, "tle": {"line1": "1 02807U 67048A   25358.29691726  .00000099  00000+0  13801-3 0  9990", "line2": "2 02807  89.6733 353.6328 0022155  83.3218 288.5702 13.50724626884328"}}, "geometry": {"type": "Point", "coordinates": [174.2239422725393, -61.804877649769494]}}, {"type": "Feature", "properties": {"norad_id": 2965, "name": "OPS 4947 (TRANSIT 17)", "group": "nnss", "lat": 64.77516078008794, "lon": 25.106839988016507, "alt_km": 1077.441563177811, "timestamp": "2025-12-24T20:42:21.295302+00:00", "meta": {"OBJECT_NAME": "OPS 4947 (TRANSIT 17)", "OBJECT_ID": "1967-092A", "EPOCH": "2025-12-24T02:56:01.091904", "MEAN_MOTION": 13.53456547, "ECCENTRICITY": 0.0047039, "INCLINATION": 89.2486, "RA_OF_ASC_NODE": 23.567, "ARG_OF_PERICENTER": 200.7107, "MEAN_ANOMALY": 218.5602, "EPHEMERIS_TYPE": 0, "CLASSIFICATION_TYPE": "U", "NORAD_CAT_ID": 2965, "ELEMENT_SET_NO": 999, "REV_AT_EPOCH": 87251, "BSTAR": 0.0001871117, "MEAN_MOTION_DOT": 1.38e-06, "MEAN_MOTION_DDOT": 0}, "tle": {"line1": "1 02965U 67092A   25358.12223486  .00000138  00000+0  18711-3 0  9999", "line2": "2 02965  89.2486  23.5670 0047039 200.7107 218.5602 13.53456547872514"}}, "geometry": {"type": "Point", "coordinates": [25.106839988016507, 64.77516078008794]}}, {"type": "Feature", "properties": {"norad_id": 3133, "name": "OPS 7034 (TRANSIT 18)", "group": "nnss", "lat": 47.87065419891097, "lon": 93.7049449037504, "alt_km": 1006.538643562084, "timestamp": "2025-12-24T20:42:21.295315+00:00", "meta": {"OBJECT_NAME": "OPS 7034 (TRANSIT 18)", "OBJECT_ID": "1968-012A", "EPOCH": "2025-12-24T06:24:06.697152", "MEAN_MOTION": 13.51568351, "ECCENTRICITY": 0.00749114, "INCLINATION": 90.0285, "RA_OF_ASC_NODE": 273.6717, "ARG_OF_PERICENTER": 136.012, "MEAN_ANOMALY": 337.8699, "EPHEMERIS_TYPE": 0, "CLASSIFICATION_TYPE": "U", "NORAD_CAT_ID": 3133, "ELEMENT_SET_NO": 999, "REV_AT_EPOCH": 57074, "BSTAR": 0.00021254939, "MEAN_MOTION_DOT": 1.51e-06, "MEAN_MOTION_DDOT": 0}, "tle": {"line1": "1 03133U 68012A   25358.26674418  .00000151  00000+0  21255-3 0  9992", "line2": "2 03133  90.0285 273.6717 0074911 136.0120 337.8699 13.51568351570740"}}, "geometry": {"type": "Point", "coordinates": [93.7049449037504, 47.87065419891097]}}, {"type": "Feature", "properties": {"norad_id": 4507, "name": "NNSS 19 (TRANSIT 19)", "group": "nnss", "lat": 87.86967480656256, "lon": 54.67374475138142, "alt_km": 1182.6904252585437, "timestamp": "2025-12-24T20:42:21.295327+00:00", "meta": {"OBJECT_NAME": "NNSS 19 (TRANSIT 19)", "OBJECT_ID": "1970-067A", "EPOCH": "2025-12-24T04:14:45.200256", "MEAN_MOTION": 13.51317415, "ECCENTRICITY": 0.01702148, "INCLINATION": 90.0049, "RA_OF_ASC_NODE": 234.5416, "ARG_OF_PERICENTER": 259.9015, "MEAN_ANOMALY": 98.2897, "EPHEMERIS_TYPE": 0, "CLASSIFICATION_TYPE": "U", "NORAD_CAT_ID": 4507, "ELEMENT_SET_NO": 999, "REV_AT_EPOCH": 72376, "BSTAR": 0.00014701551, "MEAN_MOTION_DOT": 1.12e-06, "MEAN_MOTION_DDOT": 0}, "tle": {"line1": "1 04507U 70067A   25358.17691204  .00000112  00000+0  14702-3 0  9999", "line2": "2 04507  90.0049 234.5416 0170214 259.9015  98.2897 13.51317415723760"}}, "geometry": {"type": "Point", "coordinates": [54.67374475138142, 87.86967480656256]}}, {"type": "Feature", "properties": {"norad_id": 6909, "name": "NNSS 20 (TRANSIT 20)", "group": "nnss", "lat": -39.68410656405048, "lon": -105.24684138292366, "alt_km": 983.078481442848, "timestamp": "2025-12-24T20:42:21.295338+00:00", "meta": {"OBJECT_NAME": "NNSS 20 (TRANSIT 20)", "OBJECT_ID": "1973-081A", "EPOCH": "2025-12-24T06:53:16.958976", "MEAN_MOTION": 13.71440329, "ECCENTRICITY": 0.01561954, "INCLINATION": 89.8561, "RA_OF_ASC_NODE": 254.8813, "ARG_OF_PERICENTER": 44.0956, "MEAN_ANOMALY": 317.2539, "EPHEMERIS_TYPE": 0, "CLASSIFICATION_TYPE": "U", "NORAD_CAT_ID": 6909, "ELEMENT_SET_NO": 999, "REV_AT_EPOCH": 80519, "BSTAR": 0.00028402203, "MEAN_MOTION_DOT": 2.9e-06, "MEAN_MOTION_DDOT": 0}, "tle": {"line1": "1 06909U 73081A   25358.28700184  .00000290  00000+0  28402-3 0  9995", "line2": "2 06909  89.8561 254.8813 0156195  44.0956 317.2539 13.71440329805196"}}, "geometry": {"type": "Point", "coordinates": [-105.24684138292366, -39.68410656405048]}}, {"type": "Feature", "properties": {"norad_id": 10457, "name": "TRANSAT", "group": "nnss", "lat": -5.960521174298604, "lon": 78.13081222395759, "alt_km": 1098.4574222173715, "timestamp": "2025-12-24T20:42:21.295349+00:00", "meta": {"OBJECT_NAME": "TRANSAT", "OBJECT_ID": "1977-106A", "EPOCH": "2025-12-24T05:01:15.948768", "MEAN_MOTION": 13.4894531, "ECCENTRICITY": 0.00264334, "INCLINATION": 89.6476, "RA_OF_ASC_NODE": 78.1908, "ARG_OF_PERICENTER": 156.957, "MEAN_ANOMALY": 265.4878, "EPHEMERIS_TYPE": 0, "CLASSIFICATION_TYPE": "U", "NORAD_CAT_ID": 10457, "ELEMENT_SET_NO": 999, "REV_AT_EPOCH": 36898, "BSTAR": 0.00013248275, "MEAN_MOTION_DOT": 9.3e-07, "MEAN_MOTION_DDOT": 0}, "tle": {"line1": "1 10457U 77106A   25358.20921237  .00000093  00000+0  13248-3 0  9999", "line2": "2 10457  89.6476  78.1908 0026433 156.9570 265.4878 13.48945310368985"}}, "geometry": {"type": "Point", "coordinates": [78.13081222395759, -5.960521174298604]}}, {"type": "Feature", "properties": {"norad_id": 12458, "name": "NOVA 1", "group": "nnss", "lat": -37.404870016665384, "lon": -88.6733243501096, "alt_km": 1188.1331237613667, "timestamp": "2025-12-24T20:42:21.295360+00:00", "meta": {"OBJECT_NAME": "NOVA 1", "OBJECT_ID": "1981-044A", "EPOCH": "2025-12-24T07:12:21.701952", "MEAN_MOTION": 13.23279668, "ECCENTRICITY": 0.00157546, "INCLINATION": 89.8525, "RA_OF_ASC_NODE": 91.2218, "ARG_OF_PERICENTER": 75.5861, "MEAN_ANOMALY": 343.5481, "EPHEMERIS_TYPE": 0, "CLASSIFICATION_TYPE": "U", "NORAD_CAT_ID": 12458, "ELEMENT_SET_NO": 999, "REV_AT_EPOCH": 15339, "BSTAR": 0.00019755669, "MEAN_MOTION_DOT": 9.3e-07, "MEAN_MOTION_DDOT": 0}, "tle": {"line1": "1 12458U 81044A   25358.30025118  .00000093  00000+0  19756-3 0  9992", "line2": "2 12458  89.8525  91.2218 0015754  75.5861 343.5481 13.23279668153392"}}, "geometry": {"type": "Point", "coordinates": [-88.6733243501096, -37.404870016665384]}}, {"type": "Feature", "properties": {"norad_id": 15362, "name": "NOVA 3", "group": "nnss", "lat": 79.88208964486772, "lon": 79.9948468505363, "alt_km": 1183.8006284911262, "timestamp": "2025-12-24T20:42:21.295370+00:00", "meta": {"OBJECT_NAME": "NOVA 3", "OBJECT_ID": "1984-110A", "EPOCH": "2025-12-24T06:03:19.897632", "MEAN_MOTION": 13.23045945, "ECCENTRICITY": 0.00298899, "INCLINATION": 90.1217, "RA_OF_ASC_NODE": 80.6701, "ARG_OF_PERICENTER": 298.7449, "MEAN_ANOMALY": 115.1614, "EPHEMERIS_TYPE": 0, "CLASSIFICATION_TYPE": "U", "NORAD_CAT_ID": 15362, "ELEMENT_SET_NO": 999, "REV_AT_EPOCH": 98851, "BSTAR": 0.0001686354, "MEAN_MOTION_DOT": 7.9e-07, "MEAN_MOTION_DDOT": 0}, "tle": {"line1": "1 15362U 84110A   25358.25231363  .00000079  00000+0  16864-3 0  9992", "line2": "2 15362  90.1217  80.6701 0029889 298.7449 115.1614 13.23045945988516"}}, "geometry": {"type": "Point", "coordinates": [79.9948468505363, 79.88208964486772]}}, {"type": "Feature", "properties": {"norad_id": 15935, "name": "OSCAR 30", "group": "nnss", "lat": 7.100176546840356, "lon": 100.02469791099954, "alt_km": 1031.8914633022478, "timestamp": "2025-12-24T20:42:21.295381+00:00", "meta": {"OBJECT_NAME": "OSCAR 30", "OBJECT_ID": "1985-066A", "EPOCH": "2025-12-24T06:32:53.151360", "MEAN_MOTION": 13.36080216, "ECCENTRICITY": 0.01689191, "INCLINATION": 90.1653, "RA_OF_ASC_NODE": 100.0357, "ARG_OF_PERICENTER": 51.6688, "MEAN_ANOMALY": 1.1151, "EPHEMERIS_TYPE": 0, "CLASSIFICATION_TYPE": "U", "NORAD_CAT_ID": 15935, "ELEMENT_SET_NO": 999, "REV_AT_EPOCH": 96607, "BSTAR": 0.00019050802, "MEAN_MOTION_DOT": 1.15e-06, "MEAN_MOTION_DDOT": 0}, "tle": {"line1": "1 15935U 85066A   25358.27283740  .00000115  00000+0  19051-3 0  9999", "line2": "2 15935  90.1653 100.0357 0168919  51.6688   1.1151 13.36080216966070"}}, "geometry": {"type": "Point", "coordinates": [100.02469791099954, 7.100176546840356]}}, {"type": "Feature", "properties": {"norad_id": 15936, "name": "OSCAR 24", "group": "nnss", "lat": 78.33593060697372, "lon": 91.65165163132505, "alt_km": 998.5128792146088, "timestamp": "2025-12-24T20:42:21.295392+00:00", "meta": {"OBJECT_NAME": "OSCAR 24", "OBJECT_ID": "1985-066B", "EPOCH": "2025-12-24T01:24:08.384832", "MEAN_MOTION": 13.35937329, "ECCENTRICITY": 0.01701063, "INCLINATION": 90.1791, "RA_OF_ASC_NODE": 92.5056, "ARG_OF_PERICENTER": 58.7246, "MEAN_ANOMALY": 112.9277, "EPHEMERIS_TYPE": 0, "CLASSIFICATION_TYPE": "U", "NORAD_CAT_ID": 15936, "ELEMENT_SET_NO": 999, "REV_AT_EPOCH": 96794, "BSTAR": 0.00014322832, "MEAN_MOTION_DOT": 8.9e-07, "MEAN_MOTION_DDOT": 0}, "tle": {"line1": "1 15936U 85066B   25358.05843038  .00000089  00000+0  14323-3 0  9995", "line2": "2 15936  90.1791  92.5056 0170106  58.7246 112.9277 13.35937329967946"}}, "geometry": {"type": "Point", "coordinates": [91.65165163132505, 78.33593060697372]}}]}